{
    "links": {
        "self": "http://www.neowsapp.com/rest/v1/neo/3566630?api_key=iIulBulltgU6a56xZRHN4H3l9WmuAYTsLGpBGhQ2"
    },
    "id": "3566630",
    "neo_reference_id": "3566630",
    "name": "(2011 KK15)",
    "designation": "2011 KK15",
    "nasa_jpl_url": "http://ssd.jpl.nasa.gov/sbdb.cgi?sstr=3566630",
    "absolute_magnitude_h": 22.3,
    "estimated_diameter": {
        "kilometers": {
            "estimated_diameter_min": 0.0921626549,
            "estimated_diameter_max": 0.2060819612
        },
        "meters": {
            "estimated_diameter_min": 92.1626548503,
            "estimated_diameter_max": 206.0819612321
        },
        "miles": {
            "estimated_diameter_min": 0.057267201,
            "estimated_diameter_max": 0.1280533543
        },
        "feet": {
            "estimated_diameter_min": 302.370924539,
            "estimated_diameter_max": 676.1219416887
        }
    },
    "is_potentially_hazardous_asteroid": false,
    "close_approach_data": [
        {
            "close_approach_date": "1952-04-11",
            "close_approach_date_full": "1952-Apr-11 13:50",
            "epoch_date_close_approach": -559303800000,
            "relative_velocity": {
                "kilometers_per_second": "5.6022262576",
                "kilometers_per_hour": "20168.014527517",
                "miles_per_hour": "12531.619915723"
            },
            "miss_distance": {
                "astronomical": "1.3418255811",
                "lunar": "521.9701510479",
                "kilometers": "200734248.844072257",
                "miles": "124730478.4025688666"
            },
            "orbiting_body": "Juptr"
        },
        {
            "close_approach_date": "1964-01-01",
            "close_approach_date_full": "1964-Jan-01 18:55",
            "epoch_date_close_approach": -189320700000,
            "relative_velocity": {
                "kilometers_per_second": "7.8295581154",
                "kilometers_per_hour": "28186.40921539",
                "miles_per_hour": "17513.9385483072"
            },
            "miss_distance": {
                "astronomical": "1.8850899097",
                "lunar": "733.2999748733",
                "kilometers": "282005435.249612339",
                "miles": "175230051.9386307182"
            },
            "orbiting_body": "Juptr"
        },
        {
            "close_approach_date": "1973-03-10",
            "close_approach_date_full": "1973-Mar-10 15:53",
            "epoch_date_close_approach": 100626780000,
            "relative_velocity": {
                "kilometers_per_second": "13.9969951698",
                "kilometers_per_hour": "50389.1826113254",
                "miles_per_hour": "31309.8784953538"
            },
            "miss_distance": {
                "astronomical": "0.1262184548",
                "lunar": "49.0989789172",
                "kilometers": "18882011.992771276",
                "miles": "11732738.1980085688"
            },
            "orbiting_body": "Earth"
        },
        {
            "close_approach_date": "2011-05-22",
            "close_approach_date_full": "2011-May-22 03:35",
            "epoch_date_close_approach": 1306035300000,
            "relative_velocity": {
                "kilometers_per_second": "9.9027033571",
                "kilometers_per_hour": "35649.7320854233",
                "miles_per_hour": "22151.3571394121"
            },
            "miss_distance": {
                "astronomical": "0.0316027274",
                "lunar": "12.2934609586",
                "kilometers": "4727700.705230638",
                "miles": "2937656.9972652844"
            },
            "orbiting_body": "Earth"
        },
        {
            "close_approach_date": "2166-04-09",
            "close_approach_date_full": "2166-Apr-09 05:23",
            "epoch_date_close_approach": 6193689780000,
            "relative_velocity": {
                "kilometers_per_second": "5.2772712431",
                "kilometers_per_hour": "18998.1764750856",
                "miles_per_hour": "11804.7280436442"
            },
            "miss_distance": {
                "astronomical": "1.3471365787",
                "lunar": "524.0361291143",
                "kilometers": "201528762.772607369",
                "miles": "125224166.4651409322"
            },
            "orbiting_body": "Juptr"
        }
    ],
    "orbital_data": {
        "orbit_id": "15",
        "orbit_determination_date": "2017-04-06 08:53:25",
        "first_observation_date": "2011-05-27",
        "last_observation_date": "2011-07-03",
        "data_arc_in_days": 37,
        "observations_used": 68,
        "orbit_uncertainty": "7",
        "minimum_orbit_intersection": ".00643298",
        "jupiter_tisserand_invariant": "3.220",
        "epoch_osculation": "2459000.5",
        "eccentricity": ".6109248179505959",
        "semi_major_axis": "2.435398005129352",
        "inclination": "1.250738727065657",
        "ascending_node_longitude": "230.7014559949517",
        "orbital_period": "1388.204173767758",
        "perihelion_distance": ".947552922208458",
        "perihelion_argument": "343.0171190219151",
        "aphelion_distance": "3.923243088050246",
        "perihelion_time": "2458458.735565485951",
        "mean_anomaly": "140.4946045477647",
        "mean_motion": ".2593278473028326",
        "equinox": "J2000",
        "orbit_class": {
            "orbit_class_type": "APO",
            "orbit_class_description": "Near-Earth asteroid orbits which cross the Earth’s orbit similar to that of 1862 Apollo",
            "orbit_class_range": "a (semi-major axis) > 1.0 AU; q (perihelion) < 1.017 AU"
        }
    },
    "is_sentry_object": false
}